{"type": "FeatureCollection", "features": [ {"type": "Feature", "properties": {"norad_id": 66797, "name": "STARLINK-36099", "group": "last-30-days", "lat": -28.793578280013886, "lon": 68.3281445595584, "alt_km": 367.55225502809844, "timestamp": "2025-12-19T06:59:42.650666+00:00", "meta": {"OBJECT_NAME": "STARLINK-36099", "OBJECT_ID": "2025-278G", "EPOCH": "2025-12-19T00:00:02.000160", "MEAN_MOTION": 15.68841391, "ECCENTRICITY": 0.00016797, "INCLINATION": 42.9993, "RA_OF_ASC_NODE": 213.9343, "ARG_OF_PERICENTER": 274.854, "MEAN_ANOMALY": 102.6636, "EPHEMERIS_TYPE": 0, "CLASSIFICATION_TYPE": "U", "NORAD_CAT_ID": 66797, "ELEMENT_SET_NO": 999, "REV_AT_EPOCH": 402, "BSTAR": -0.017923972, "MEAN_MOTION_DOT": -0.01880096, "MEAN_MOTION_DDOT": 0}, "tle": {"line1": "1 66797U 25278G   25353.00002315 -.01880096  00000+0 -17924-1 0  9995", "line2": "2 66797  42.9993 213.9343 0001679 274.8540 102.6636 15.68841391  4027"}}, "geometry": {"type": "Point", "coordinates": [68.3281445595584, -28.793578280013886]}}, {"type": "Feature", "properties": {"norad_id": 66798, "name": "STARLINK-36041", "group": "last-30-days", "lat": -29.83573358857396, "lon": 70.16655062660058, "alt_km": 367.55179878582476, "timestamp": "2025-12-19T06:59:42.650676+00:00", "meta": {"OBJECT_NAME": "STARLINK-36041", "OBJECT_ID": "2025-278H", "EPOCH": "2025-12-19T00:00:02.000160", "MEAN_MOTION": 15.68861091, "ECCENTRICITY": 0.00016195, "INCLINATION": 42.9993, "RA_OF_ASC_NODE": 213.929, "ARG_OF_PERICENTER": 272.2545, "MEAN_ANOMALY": 107.1667, "EPHEMERIS_TYPE": 0, "CLASSIFICATION_TYPE": "U", "NORAD_CAT_ID": 66798, "ELEMENT_SET_NO": 999, "REV_AT_EPOCH": 380, "BSTAR": -0.01814105, "MEAN_MOTION_DOT": -0.01901631, "MEAN_MOTION_DDOT": 0}, "tle": {"line1": "1 66798U 25278H   25353.00002315 -.01901631  00000+0 -18141-1 0  9997", "line2": "2 66798  42.9993 213.9290 0001619 272.2545 107.1667 15.68861091  3808"}}, "geometry": {"type": "Point", "coordinates": [70.16655062660058, -29.83573358857396]}}, {"type": "Feature", "properties": {"norad_id": 66799, "name": "STARLINK-36044", "group": "last-30-days", "lat": -30.85151642070673, "lon": 72.04359547767342, "alt_km": 367.60696299971823, "timestamp": "2025-12-19T06:59:42.650686+00:00", "meta": {"OBJECT_NAME": "STARLINK-36044", "OBJECT_ID": "2025-278J", "EPOCH": "2025-12-19T00:00:02.000160", "MEAN_MOTION": 15.68859385, "ECCENTRICITY": 0.00015983, "INCLINATION": 42.9995, "RA_OF_ASC_NODE": 213.9247, "ARG_OF_PERICENTER": 272.9896, "MEAN_ANOMALY": 108.3492, "EPHEMERIS_TYPE": 0, "CLASSIFICATION_TYPE": "U", "NORAD_CAT_ID": 66799, "ELEMENT_SET_NO": 999, "REV_AT_EPOCH": 396, "BSTAR": -0.018112385, "MEAN_MOTION_DOT": -0.0189883, "MEAN_MOTION_DDOT": 0}, "tle": {"line1": "1 66799U 25278J   25353.00002315 -.01898830  00000+0 -18112-1 0  9992", "line2": "2 66799  42.9995 213.9247 0001598 272.9896 108.3492 15.68859385  3964"}}, "geometry": {"type": "Point", "coordinates": [72.04359547767342, -30.85151642070673]}}, {"type": "Feature", "properties": {"norad_id": 66800, "name": "STARLINK-35996", "group": "last-30-days", "lat": -32.79722356186094, "lon": 75.91608990960741, "alt_km": 367.6250650050042, "timestamp": "2025-12-19T06:59:42.650698+00:00", "meta": {"OBJECT_NAME": "STARLINK-35996", "OBJECT_ID": "2025-278K", "EPOCH": "2025-12-19T00:00:02.000160", "MEAN_MOTION": 15.68859441, "ECCENTRICITY": 0.00016553, "INCLINATION": 42.9993, "RA_OF_ASC_NODE": 213.9148, "ARG_OF_PERICENTER": 272.4079, "MEAN_ANOMALY": 112.764, "EPHEMERIS_TYPE": 0, "CLASSIFICATION_TYPE": "U", "NORAD_CAT_ID": 66800, "ELEMENT_SET_NO": 999, "REV_AT_EPOCH": 375, "BSTAR": -0.01811122, "MEAN_MOTION_DOT": -0.01898769, "MEAN_MOTION_DDOT": 0}, "tle": {"line1": "1 66800U 25278K   25353.00002315 -.01898769  00000+0 -18111-1 0  9995", "line2": "2 66800  42.9993 213.9148 0001655 272.4079 112.7640 15.68859441  3751"}}, "geometry": {"type": "Point", "coordinates": [75.91608990960741, -32.79722356186094]}}, {"type": "Feature", "properties": {"norad_id": 66801, "name": "STARLINK-36080", "group": "last-30-days", "lat": -37.083478619834516, "lon": 86.3477015616568, "alt_km": 367.8265934073279, "timestamp": "2025-12-19T06:59:42.650708+00:00", "meta": {"OBJECT_NAME": "STARLINK-36080", "OBJECT_ID": "2025-278L", "EPOCH": "2025-12-19T00:00:02.000160", "MEAN_MOTION": 15.68861899, "ECCENTRICITY": 0.00015796, "INCLINATION": 42.999, "RA_OF_ASC_NODE": 213.8894, "ARG_OF_PERICENTER": 276.7399, "MEAN_ANOMALY": 118.0177, "EPHEMERIS_TYPE": 0, "CLASSIFICATION_TYPE": "U", "NORAD_CAT_ID": 66801, "ELEMENT_SET_NO": 999, "REV_AT_EPOCH": 396, "BSTAR": -0.018152599, "MEAN_MOTION_DOT": -0.01902732, "MEAN_MOTION_DDOT": 0}, "tle": {"line1": "1 66801U 25278L   25353.00002315 -.01902732  00000+0 -18153-1 0  9998", "line2": "2 66801  42.9990 213.8894 0001579 276.7399 118.0177 15.68861899  3960"}}, "geometry": {"type": "Point", "coordinates": [86.3477015616568, -37.083478619834516]}}, {"type": "Feature", "properties": {"norad_id": 66802, "name": "STARLINK-35604", "group": "last-30-days", "lat": -31.840430067936207, "lon": 73.96211608220285, "alt_km": 367.6755086368257, "timestamp": "2025-12-19T06:59:42.650724+00:00", "meta": {"OBJECT_NAME": "STARLINK-35604", "OBJECT_ID": "2025-278M", "EPOCH": "2025-12-19T00:00:02.000160", "MEAN_MOTION": 15.68844882, "ECCENTRICITY": 0.00015831, "INCLINATION": 42.9991, "RA_OF_ASC_NODE": 213.9193, "ARG_OF_PERICENTER": 273.8708, "MEAN_ANOMALY": 109.398, "EPHEMERIS_TYPE": 0, "CLASSIFICATION_TYPE": "U", "NORAD_CAT_ID": 66802, "ELEMENT_SET_NO": 999, "REV_AT_EPOCH": 396, "BSTAR": -0.017986036, "MEAN_MOTION_DOT": -0.01886049, "MEAN_MOTION_DDOT": 0}, "tle": {"line1": "1 66802U 25278M   25353.00002315 -.01886049  00000+0 -17986-1 0  9994", "line2": "2 66802  42.9991 213.9193 0001583 273.8708 109.3980 15.68844882  3960"}}, "geometry": {"type": "Point", "coordinates": [73.96211608220285, -31.840430067936207]}}, {"type": "Feature", "properties": {"norad_id": 66803, "name": "STARLINK-35565", "group": "last-30-days", "lat": -33.725433045459745, "lon": 77.91725624602918, "alt_km": 367.66593286022817, "timestamp": "2025-12-19T06:59:42.650738+00:00", "meta": {"OBJECT_NAME": "STARLINK-35565", "OBJECT_ID": "2025-278N", "EPOCH": "2025-12-19T00:00:02.000160", "MEAN_MOTION": 15.68858161, "ECCENTRICITY": 0.00015958, "INCLINATION": 42.9993, "RA_OF_ASC_NODE": 213.9095, "ARG_OF_PERICENTER": 271.1595, "MEAN_ANOMALY": 115.9322, "EPHEMERIS_TYPE": 0, "CLASSIFICATION_TYPE": "U", "NORAD_CAT_ID": 66803, "ELEMENT_SET_NO": 999, "REV_AT_EPOCH": 405, "BSTAR": -0.018115426, "MEAN_MOTION_DOT": -0.01899026, "MEAN_MOTION_DDOT": 0}, "tle": {"line1": "1 66803U 25278N   25353.00002315 -.01899026  00000+0 -18115-1 0  9999", "line2": "2 66803  42.9993 213.9095 0001595 271.1595 115.9322 15.68858161  4051"}}, "geometry": {"type": "Point", "coordinates": [77.91725624602918, -33.725433045459745]}}, {"type": "Feature", "properties": {"norad_id": 66804, "name": "STARLINK-36038", "group": "last-30-days", "lat": -34.6191921887247, "lon": 79.9589803136291, "alt_km": 367.7117170522106, "timestamp": "2025-12-19T06:59:42.650748+00:00", "meta": {"OBJECT_NAME": "STARLINK-36038", "OBJECT_ID": "2025-278P", "EPOCH": "2025-12-19T00:00:02.000160", "MEAN_MOTION": 15.68857998, "ECCENTRICITY": 0.00015874, "INCLINATION": 42.9995, "RA_OF_ASC_NODE": 213.9052, "ARG_OF_PERICENTER": 272.5662, "MEAN_ANOMALY": 116.4416, "EPHEMERIS_TYPE": 0, "CLASSIFICATION_TYPE": "U", "NORAD_CAT_ID": 66804, "ELEMENT_SET_NO": 999, "REV_AT_EPOCH": 396, "BSTAR": -0.018098571, "MEAN_MOTION_DOT": -0.0189744, "MEAN_MOTION_DDOT": 0}, "tle": {"line1": "1 66804U 25278P   25353.00002315 -.01897440  00000+0 -18099-1 0  9999", "line2": "2 66804  42.9995 213.9052 0001587 272.5662 116.4416 15.68857998  3964"}}, "geometry": {"type": "Point", "coordinates": [79.9589803136291, -34.6191921887247]}}, {"type": "Feature", "properties": {"norad_id": 66805, "name": "STARLINK-36049", "group": "last-30-days", "lat": -36.30034913867889, "lon": 84.17431921251477, "alt_km": 367.7375646586934, "timestamp": "2025-12-19T06:59:42.650758+00:00", "meta": {"OBJECT_NAME": "STARLINK-36049", "OBJECT_ID": "2025-278Q", "EPOCH": "2025-12-19T00:00:02.000160", "MEAN_MOTION": 15.68860989, "ECCENTRICITY": 0.00016109, "INCLINATION": 42.9993, "RA_OF_ASC_NODE": 213.895, "ARG_OF_PERICENTER": 272.6199, "MEAN_ANOMALY": 120.2205, "EPHEMERIS_TYPE": 0, "CLASSIFICATION_TYPE": "U", "NORAD_CAT_ID": 66805, "ELEMENT_SET_NO": 999, "REV_AT_EPOCH": 396, "BSTAR": -0.018144897, "MEAN_MOTION_DOT": -0.01901975, "MEAN_MOTION_DDOT": 0}, "tle": {"line1": "1 66805U 25278Q   25353.00002315 -.01901975  00000+0 -18145-1 0  9991", "line2": "2 66805  42.9993 213.8950 0001610 272.6199 120.2205 15.68860989  3965"}}, "geometry": {"type": "Point", "coordinates": [84.17431921251477, -36.30034913867889]}}, {"type": "Feature", "properties": {"norad_id": 66806, "name": "STARLINK-36069", "group": "last-30-days", "lat": -35.478136045763904, "lon": 82.04467547824297, "alt_km": 367.77061553300246, "timestamp": "2025-12-19T06:59:42.650768+00:00", "meta": {"OBJECT_NAME": "STARLINK-36069", "OBJECT_ID": "2025-278R", "EPOCH": "2025-12-19T00:00:02.000160", "MEAN_MOTION": 15.68860966, "ECCENTRICITY": 0.00015919, "INCLINATION": 42.9993, "RA_OF_ASC_NODE": 213.9001, "ARG_OF_PERICENTER": 275.2508, "MEAN_ANOMALY": 115.6736, "EPHEMERIS_TYPE": 0, "CLASSIFICATION_TYPE": "U", "NORAD_CAT_ID": 66806, "ELEMENT_SET_NO": 999, "REV_AT_EPOCH": 375, "BSTAR": -0.018150396, "MEAN_MOTION_DOT": -0.0190247, "MEAN_MOTION_DDOT": 0}, "tle": {"line1": "1 66806U 25278R   25353.00002315 -.01902470  00000+0 -18150-1 0  9999", "line2": "2 66806  42.9993 213.9001 0001591 275.2508 115.6736 15.68860966  3754"}}, "geometry": {"type": "Point", "coordinates": [82.04467547824297, -35.478136045763904]}}]}